[{"pinyin":"anshan","region_name":"\u978d\u5c71","region_id":"76"},{"pinyin":"anqing","region_name":"\u5b89\u5e86","region_id":"142"},{"pinyin":"ahfuyang","region_name":"\u961c\u9633","region_id":"145"},{"pinyin":"anyang","region_name":"\u5b89\u9633","region_id":"196"},{"is_virtual":"1","pinyin":"aba","region_name":"\u963f\u575d","region_id":"290"},{"is_virtual":"1","pinyin":"anshun","region_name":"\u5b89\u987a","region_id":"296"},{"is_virtual":"1","pinyin":"ankang","region_name":"\u5b89\u5eb7","region_id":"333"},{"is_virtual":"1","pinyin":"akesudiqu","region_name":"\u963f\u514b\u82cf\u5730\u533a","region_id":"367"},{"is_virtual":"1","pinyin":"aletai","region_name":"\u963f\u52d2\u6cf0","region_id":"375"},{"pinyin":"beijing","region_name":"\u5317\u4eac","region_id":"35"},{"pinyin":"baoding","region_name":"\u4fdd\u5b9a","region_id":"42"},{"pinyin":"baotou","region_name":"\u5305\u5934","region_id":"63"},{"pinyin":"bayannaoer","region_name":"\u5df4\u5f66\u6dd6\u5c14","region_id":"69"},{"is_virtual":"1","pinyin":"benxi","region_name":"\u672c\u6eaa","region_id":"78"},{"is_virtual":"1","pinyin":"baishan","region_name":"\u767d\u5c71","region_id":"93"},{"is_virtual":"1","pinyin":"baicheng","region_name":"\u767d\u57ce","region_id":"95"},{"pinyin":"bengbu","region_name":"\u868c\u57e0","region_id":"137"},{"pinyin":"bozhou","region_name":"\u4eb3\u5dde","region_id":"149"},{"pinyin":"binzhou","region_name":"\u6ee8\u5dde","region_id":"187"},{"is_virtual":"1","pinyin":"beihai","region_name":"\u5317\u6d77","region_id":"258"},{"is_virtual":"1","pinyin":"bazhong","region_name":"\u5df4\u4e2d","region_id":"288"},{"is_virtual":"1","pinyin":"baoshan","region_name":"\u4fdd\u5c71","region_id":"305"},{"pinyin":"baoji","region_name":"\u5b9d\u9e21","region_id":"327"},{"is_virtual":"1","pinyin":"baiyin","region_name":"\u767d\u94f6","region_id":"338"},{"is_virtual":"1","pinyin":"baiseshi","region_name":"\u767e\u8272\u5e02","region_id":"863"},{"is_virtual":"1","pinyin":"bijiediqu","region_name":"\u6bd5\u8282\u5730\u533a","region_id":"15311"},{"pinyin":"chengde","region_name":"\u627f\u5fb7","region_id":"44"},{"pinyin":"cangzhou","region_name":"\u6ca7\u5dde","region_id":"45"},{"pinyin":"changzhi","region_name":"\u957f\u6cbb","region_id":"51"},{"pinyin":"chifeng","region_name":"\u8d64\u5cf0","region_id":"65"},{"is_virtual":"1","pinyin":"chaoyang","region_name":"\u671d\u9633","region_id":"86"},{"pinyin":"changchun","region_name":"\u957f\u6625","region_id":"88"},{"pinyin":"changzhou","region_name":"\u5e38\u5dde","region_id":"114"},{"pinyin":"chuzhou","region_name":"\u6ec1\u5dde","region_id":"144"},{"is_virtual":"1","pinyin":"chaohu","region_name":"\u5de2\u6e56","region_id":"147"},{"is_virtual":"1","pinyin":"chizhou","region_name":"\u6c60\u5dde","region_id":"150"},{"pinyin":"changsha","region_name":"\u957f\u6c99","region_id":"219"},{"pinyin":"changde","region_name":"\u5e38\u5fb7","region_id":"225"},{"pinyin":"chenzhou","region_name":"\u90f4\u5dde","region_id":"228"},{"is_virtual":"1","pinyin":"chongzuo","region_name":"\u5d07\u5de6","region_id":"267"},{"pinyin":"chongqing","region_name":"\u91cd\u5e86","region_id":"271"},{"pinyin":"chengdu","region_name":"\u6210\u90fd","region_id":"272"},{"pinyin":"cixi","region_name":"\u6148\u6eaa","region_id":"424"},{"is_virtual":"1","pinyin":"chuxiong","region_name":"\u695a\u96c4","region_id":"313"},{"pinyin":"changshu","region_name":"\u5e38\u719f","region_id":"15491"},{"pinyin":"datong","region_name":"\u5927\u540c","region_id":"49"},{"pinyin":"dalian","region_name":"\u5927\u8fde","region_id":"75"},{"is_virtual":"1","pinyin":"dandong","region_name":"\u4e39\u4e1c","region_id":"79"},{"pinyin":"daqing","region_name":"\u5927\u5e86","region_id":"102"},{"pinyin":"dongying","region_name":"\u4e1c\u8425","region_id":"176"},{"pinyin":"dezhou","region_name":"\u5fb7\u5dde","region_id":"185"},{"pinyin":"dongguan","region_name":"\u4e1c\u839e","region_id":"249"},{"pinyin":"deyang","region_name":"\u5fb7\u9633","region_id":"276"},{"pinyin":"dazhou","region_name":"\u8fbe\u5dde","region_id":"285"},{"is_virtual":"1","pinyin":"dingxi","region_name":"\u5b9a\u897f","region_id":"345"},{"is_virtual":"1","pinyin":"danzhou","region_name":"\u510b\u5dde","region_id":"14905"},{"is_virtual":"1","pinyin":"dongfang","region_name":"\u4e1c\u65b9","region_id":"14908"},{"is_virtual":"1","pinyin":"dali","region_name":"\u5927\u7406","region_id":"314"},{"is_virtual":"1","pinyin":"dehong","region_name":"\u5fb7\u5b8f","region_id":"315"},{"is_virtual":"1","pinyin":"diqing","region_name":"\u8fea\u5e86","region_id":"317"},{"is_virtual":"1","pinyin":"eerduosi","region_name":"\u9102\u5c14\u591a\u65af","region_id":"67"},{"pinyin":"ezhou","region_name":"\u9102\u5dde","region_id":"213"},{"pinyin":"enshi","region_name":"\u6069\u65bd","region_id":"218"},{"pinyin":"fushun","region_name":"\u629a\u987a","region_id":"77"},{"is_virtual":"1","pinyin":"fuxin","region_name":"\u961c\u65b0","region_id":"82"},{"pinyin":"fuzhou","region_name":"\u798f\u5dde","region_id":"152"},{"is_virtual":"1","pinyin":"fuzhou2","region_name":"\u629a\u5dde","region_id":"170"},{"pinyin":"foshan","region_name":"\u4f5b\u5c71","region_id":"238"},{"is_virtual":"1","pinyin":"fangchenggang","region_name":"\u9632\u57ce\u6e2f","region_id":"259"},{"pinyin":"fuyang","region_name":"\u5bcc\u9633","region_id":"651"},{"pinyin":"ganzhou","region_name":"\u8d63\u5dde","region_id":"167"},{"pinyin":"guangzhou","region_name":"\u5e7f\u5dde","region_id":"233"},{"pinyin":"guilin","region_name":"\u6842\u6797","region_id":"256"},{"is_virtual":"1","pinyin":"guigang","region_name":"\u8d35\u6e2f","region_id":"261"},{"is_virtual":"1","pinyin":"guangyuan","region_name":"\u5e7f\u5143","region_id":"278"},{"is_virtual":"1","pinyin":"guangan","region_name":"\u5e7f\u5b89","region_id":"284"},{"is_virtual":"1","pinyin":"ganzi","region_name":"\u7518\u5b5c","region_id":"291"},{"pinyin":"guiyang","region_name":"\u8d35\u9633","region_id":"293"},{"is_virtual":"1","pinyin":"guyuan","region_name":"\u56fa\u539f","region_id":"360"},{"pinyin":"gongzhuling","region_name":"\u516c\u4e3b\u5cad","region_id":"16247"},{"pinyin":"handan","region_name":"\u90af\u90f8","region_id":"40"},{"is_virtual":"1","pinyin":"hengshui","region_name":"\u8861\u6c34","region_id":"47"},{"pinyin":"houma","region_name":"\u4faf\u9a6c","region_id":"59"},{"pinyin":"huhehaote","region_name":"\u547c\u548c\u6d69\u7279","region_id":"62"},{"pinyin":"hulunbeier","region_name":"\u547c\u4f26\u8d1d\u5c14","region_id":"68"},{"pinyin":"haerbin","region_name":"\u54c8\u5c14\u6ee8","region_id":"97"},{"is_virtual":"1","pinyin":"hegang","region_name":"\u9e64\u5c97","region_id":"100"},{"is_virtual":"1","pinyin":"heihe","region_name":"\u9ed1\u6cb3","region_id":"107"},{"pinyin":"huaian","region_name":"\u6dee\u5b89","region_id":"118"},{"pinyin":"hangzhou","region_name":"\u676d\u5dde","region_id":"124"},{"pinyin":"huzhou","region_name":"\u6e56\u5dde","region_id":"128"},{"pinyin":"hefei","region_name":"\u5408\u80a5","region_id":"135"},{"pinyin":"huainan","region_name":"\u6dee\u5357","region_id":"138"},{"is_virtual":"1","pinyin":"huaibei","region_name":"\u6dee\u5317","region_id":"140"},{"is_virtual":"1","pinyin":"huangshan","region_name":"\u9ec4\u5c71","region_id":"143"},{"pinyin":"huangshi","region_name":"\u9ec4\u77f3","region_id":"207"},{"is_virtual":"1","pinyin":"huanggang","region_name":"\u9ec4\u5188","region_id":"215"},{"pinyin":"hengyang","region_name":"\u8861\u9633","region_id":"222"},{"pinyin":"huaihua","region_name":"\u6000\u5316","region_id":"230"},{"pinyin":"huizhou","region_name":"\u60e0\u5dde","region_id":"243"},{"is_virtual":"1","pinyin":"heyuan","region_name":"\u6cb3\u6e90","region_id":"246"},{"is_virtual":"1","pinyin":"hezhou","region_name":"\u8d3a\u5dde","region_id":"264"},{"is_virtual":"1","pinyin":"hechi","region_name":"\u6cb3\u6c60","region_id":"265"},{"pinyin":"haikou","region_name":"\u6d77\u53e3","region_id":"268"},{"pinyin":"hanzhong","region_name":"\u6c49\u4e2d","region_id":"331"},{"is_virtual":"1","pinyin":"hami","region_name":"\u54c8\u5bc6","region_id":"365"},{"is_virtual":"1","pinyin":"hetian","region_name":"\u548c\u7530","region_id":"366"},{"is_virtual":"1","pinyin":"huludao","region_name":"\u846b\u82a6\u5c9b","region_id":"13717"},{"is_virtual":"1","pinyin":"heze","region_name":"\u83cf\u6cfd","region_id":"14294"},{"is_virtual":"1","pinyin":"honghe","region_name":"\u7ea2\u6cb3","region_id":"311"},{"pinyin":"haicheng","region_name":"\u6d77\u57ce","region_id":"16213"},{"pinyin":"jincheng","region_name":"\u664b\u57ce","region_id":"52"},{"pinyin":"jinzhong","region_name":"\u664b\u4e2d","region_id":"54"},{"pinyin":"jinzhou","region_name":"\u9526\u5dde","region_id":"80"},{"pinyin":"jilin","region_name":"\u5409\u6797","region_id":"89"},{"is_virtual":"1","pinyin":"jixi","region_name":"\u9e21\u897f","region_id":"99"},{"pinyin":"jiamusi","region_name":"\u4f73\u6728\u65af","region_id":"104"},{"pinyin":"jstaizhou","region_name":"\u6cf0\u5dde","region_id":"122"},{"pinyin":"jiaxing","region_name":"\u5609\u5174","region_id":"127"},{"pinyin":"jinhua","region_name":"\u91d1\u534e","region_id":"130"},{"is_virtual":"1","pinyin":"jingdezhen","region_name":"\u666f\u5fb7\u9547","region_id":"162"},{"pinyin":"jiujiang","region_name":"\u4e5d\u6c5f","region_id":"164"},{"is_virtual":"1","pinyin":"jian","region_name":"\u5409\u5b89","region_id":"168"},{"pinyin":"jinan","region_name":"\u6d4e\u5357","region_id":"172"},{"pinyin":"jining","region_name":"\u6d4e\u5b81","region_id":"179"},{"pinyin":"jiaozuo","region_name":"\u7126\u4f5c","region_id":"193"},{"pinyin":"jingzhou","region_name":"\u8346\u5dde","region_id":"210"},{"pinyin":"jingmen","region_name":"\u8346\u95e8","region_id":"212"},{"pinyin":"jiangmen","region_name":"\u6c5f\u95e8","region_id":"239"},{"is_virtual":"1","pinyin":"jieyang","region_name":"\u63ed\u9633","region_id":"252"},{"pinyin":"jiayuguan","region_name":"\u5609\u5cea\u5173","region_id":"336"},{"is_virtual":"1","pinyin":"jinchang","region_name":"\u91d1\u660c","region_id":"337"},{"pinyin":"jiaozhou","region_name":"\u80f6\u5dde","region_id":"515"},{"pinyin":"jiangyin","region_name":"\u6c5f\u9634","region_id":"520"},{"pinyin":"jingjiang","region_name":"\u9756\u6c5f","region_id":"597"},{"pinyin":"jintan","region_name":"\u91d1\u575b","region_id":"598"},{"pinyin":"jiyuan","region_name":"\u6d4e\u6e90","region_id":"14527"},{"pinyin":"kunming","region_name":"\u6606\u660e","region_id":"302"},{"is_virtual":"1","pinyin":"kelamayi","region_name":"\u514b\u62c9\u739b\u4f9d","region_id":"363"},{"is_virtual":"1","pinyin":"kashi","region_name":"\u5580\u4ec0","region_id":"368"},{"pinyin":"kunshan","region_name":"\u6606\u5c71","region_id":"521"},{"is_virtual":"1","pinyin":"kuerle","region_name":"\u5e93\u5c14\u52d2","region_id":"15479"},{"pinyin":"langfang","region_name":"\u5eca\u574a","region_id":"46"},{"pinyin":"linfen","region_name":"\u4e34\u6c7e","region_id":"57"},{"pinyin":"lvliang","region_name":"\u5415\u6881","region_id":"58"},{"pinyin":"liaoyang","region_name":"\u8fbd\u9633","region_id":"83"},{"is_virtual":"1","pinyin":"liaoyuan","region_name":"\u8fbd\u6e90","region_id":"91"},{"pinyin":"lianyungang","region_name":"\u8fde\u4e91\u6e2f","region_id":"117"},{"pinyin":"lishui","region_name":"\u4e3d\u6c34","region_id":"134"},{"is_virtual":"1","pinyin":"liuan","region_name":"\u516d\u5b89","region_id":"148"},{"pinyin":"longyan","region_name":"\u9f99\u5ca9","region_id":"159"},{"is_virtual":"1","pinyin":"laiwu","region_name":"\u83b1\u829c","region_id":"183"},{"pinyin":"linyi","region_name":"\u4e34\u6c82","region_id":"184"},{"is_virtual":"1","pinyin":"liaocheng","region_name":"\u804a\u57ce","region_id":"186"},{"pinyin":"luoyang","region_name":"\u6d1b\u9633","region_id":"191"},{"pinyin":"luohe","region_name":"\u6f2f\u6cb3","region_id":"199"},{"pinyin":"loudi","region_name":"\u5a04\u5e95","region_id":"231"},{"pinyin":"liuzhou","region_name":"\u67f3\u5dde","region_id":"255"},{"is_virtual":"1","pinyin":"laibin","region_name":"\u6765\u5bbe","region_id":"266"},{"pinyin":"luzhou","region_name":"\u6cf8\u5dde","region_id":"275"},{"pinyin":"leshan","region_name":"\u4e50\u5c71","region_id":"281"},{"is_virtual":"1","pinyin":"liangshan","region_name":"\u51c9\u5c71","region_id":"292"},{"pinyin":"liupanshui","region_name":"\u516d\u76d8\u6c34","region_id":"294"},{"is_virtual":"1","pinyin":"lijiang","region_name":"\u4e3d\u6c5f","region_id":"307"},{"is_virtual":"1","pinyin":"lincang","region_name":"\u4e34\u6ca7","region_id":"309"},{"pinyin":"lanzhou","region_name":"\u5170\u5dde","region_id":"335"},{"pinyin":"laizhou","region_name":"\u83b1\u5dde","region_id":"506"},{"pinyin":"laixi","region_name":"\u83b1\u897f","region_id":"517"},{"pinyin":"liyang","region_name":"\u6ea7\u9633","region_id":"599"},{"pinyin":"linan","region_name":"\u4e34\u5b89","region_id":"661"},{"pinyin":"liuyang","region_name":"\u6d4f\u9633","region_id":"16217"},{"pinyin":"mudanjiang","region_name":"\u7261\u4e39\u6c5f","region_id":"106"},{"pinyin":"maanshan","region_name":"\u9a6c\u978d\u5c71","region_id":"139"},{"is_virtual":"1","pinyin":"maoming","region_name":"\u8302\u540d","region_id":"241"},{"is_virtual":"1","pinyin":"meizhou","region_name":"\u6885\u5dde","region_id":"244"},{"pinyin":"mianyang","region_name":"\u7ef5\u9633","region_id":"277"},{"pinyin":"meishan","region_name":"\u7709\u5c71","region_id":"286"},{"pinyin":"nanjing","region_name":"\u5357\u4eac","region_id":"111"},{"pinyin":"nantong","region_name":"\u5357\u901a","region_id":"116"},{"pinyin":"ningbo","region_name":"\u5b81\u6ce2","region_id":"125"},{"is_virtual":"1","pinyin":"nanping","region_name":"\u5357\u5e73","region_id":"158"},{"pinyin":"nanchang","region_name":"\u5357\u660c","region_id":"161"},{"pinyin":"nanyang","region_name":"\u5357\u9633","region_id":"201"},{"pinyin":"nanning","region_name":"\u5357\u5b81","region_id":"254"},{"is_virtual":"1","pinyin":"neijiang","region_name":"\u5185\u6c5f","region_id":"280"},{"pinyin":"nanchong","region_name":"\u5357\u5145","region_id":"282"},{"is_virtual":"1","pinyin":"ningdeshi","region_name":"\u5b81\u5fb7\u5e02","region_id":"650"},{"is_virtual":"1","pinyin":"nujiang","region_name":"\u6012\u6c5f","region_id":"316"},{"pinyin":"panjin","region_name":"\u76d8\u9526","region_id":"84"},{"pinyin":"putian","region_name":"\u8386\u7530","region_id":"154"},{"is_virtual":"1","pinyin":"pingxiang","region_name":"\u840d\u4e61","region_id":"163"},{"pinyin":"pingdingshan","region_name":"\u5e73\u9876\u5c71","region_id":"192"},{"pinyin":"puyang","region_name":"\u6fee\u9633","region_id":"197"},{"is_virtual":"1","pinyin":"panzhihua","region_name":"\u6500\u679d\u82b1","region_id":"274"},{"is_virtual":"1","pinyin":"pingliang","region_name":"\u5e73\u51c9","region_id":"342"},{"is_virtual":"1","pinyin":"puershi","region_name":"\u666e\u6d31\u5e02","region_id":"787"},{"pinyin":"qinhuangdao","region_name":"\u79e6\u7687\u5c9b","region_id":"39"},{"is_virtual":"1","pinyin":"qiqihaer","region_name":"\u9f50\u9f50\u54c8\u5c14","region_id":"98"},{"is_virtual":"1","pinyin":"qitaihe","region_name":"\u4e03\u53f0\u6cb3","region_id":"105"},{"pinyin":"quzhou","region_name":"\u8862\u5dde","region_id":"131"},{"pinyin":"quanzhou","region_name":"\u6cc9\u5dde","region_id":"156"},{"pinyin":"qingdao","region_name":"\u9752\u5c9b","region_id":"173"},{"pinyin":"qingyuan","region_name":"\u6e05\u8fdc","region_id":"248"},{"pinyin":"qinzhou","region_name":"\u94a6\u5dde","region_id":"260"},{"is_virtual":"1","pinyin":"qianxinan","region_name":"\u9ed4\u897f\u5357","region_id":"299"},{"is_virtual":"1","pinyin":"qiandongnan","region_name":"\u9ed4\u4e1c\u5357","region_id":"300"},{"is_virtual":"1","pinyin":"qiannan","region_name":"\u9ed4\u5357","region_id":"301"},{"is_virtual":"1","pinyin":"qujing","region_name":"\u66f2\u9756","region_id":"303"},{"pinyin":"qingyang","region_name":"\u5e86\u9633","region_id":"344"},{"is_virtual":"1","pinyin":"qianjiang","region_name":"\u6f5c\u6c5f","region_id":"14668"},{"pinyin":"qionghai","region_name":"\u743c\u6d77","region_id":"14904"},{"pinyin":"rizhao","region_name":"\u65e5\u7167","region_id":"182"},{"pinyin":"rugao","region_name":"\u5982\u768b","region_id":"587"},{"pinyin":"shijiazhuang","region_name":"\u77f3\u5bb6\u5e84","region_id":"37"},{"is_virtual":"1","pinyin":"shuozhou","region_name":"\u6714\u5dde","region_id":"53"},{"pinyin":"shenyang","region_name":"\u6c88\u9633","region_id":"74"},{"is_virtual":"1","pinyin":"siping","region_name":"\u56db\u5e73","region_id":"90"},{"pinyin":"songyuan","region_name":"\u677e\u539f","region_id":"94"},{"is_virtual":"1","pinyin":"shuangyashan","region_name":"\u53cc\u9e2d\u5c71","region_id":"101"},{"is_virtual":"1","pinyin":"suihua","region_name":"\u7ee5\u5316","region_id":"108"},{"pinyin":"shanghai","region_name":"\u4e0a\u6d77","region_id":"110"},{"pinyin":"suzhou","region_name":"\u82cf\u5dde","region_id":"115"},{"pinyin":"suqian","region_name":"\u5bbf\u8fc1","region_id":"123"},{"pinyin":"shaoxing","region_name":"\u7ecd\u5174","region_id":"129"},{"is_virtual":"1","pinyin":"suzhou2","region_name":"\u5bbf\u5dde","region_id":"146"},{"pinyin":"shangrao","region_name":"\u4e0a\u9976","region_id":"171"},{"is_virtual":"1","pinyin":"sanmenxia","region_name":"\u4e09\u95e8\u5ce1","region_id":"200"},{"pinyin":"shangqiu","region_name":"\u5546\u4e18","region_id":"202"},{"pinyin":"shiyan","region_name":"\u5341\u5830","region_id":"209"},{"pinyin":"suizhou","region_name":"\u968f\u5dde","region_id":"217"},{"pinyin":"shaoyang","region_name":"\u90b5\u9633","region_id":"223"},{"pinyin":"shenzhen","region_name":"\u6df1\u5733","region_id":"234"},{"pinyin":"shantou","region_name":"\u6c55\u5934","region_id":"236"},{"is_virtual":"1","pinyin":"shaoguan","region_name":"\u97f6\u5173","region_id":"237"},{"is_virtual":"1","pinyin":"shanwei","region_name":"\u6c55\u5c3e","region_id":"245"},{"is_virtual":"1","pinyin":"sanya","region_name":"\u4e09\u4e9a","region_id":"269"},{"pinyin":"suining","region_name":"\u9042\u5b81","region_id":"279"},{"is_virtual":"1","pinyin":"shangluo","region_name":"\u5546\u6d1b","region_id":"334"},{"is_virtual":"1","pinyin":"shizuishan","region_name":"\u77f3\u5634\u5c71","region_id":"358"},{"is_virtual":"1","pinyin":"sanmingshi","region_name":"\u4e09\u660e\u5e02","region_id":"643"},{"pinyin":"shangyu","region_name":"\u4e0a\u865e","region_id":"669"},{"is_virtual":"1","pinyin":"shennongjialinqu","region_name":"\u795e\u519c\u67b6\u6797\u533a","region_id":"14651"},{"pinyin":"tianjin","region_name":"\u5929\u6d25","region_id":"36"},{"pinyin":"tangshan","region_name":"\u5510\u5c71","region_id":"38"},{"pinyin":"taiyuan","region_name":"\u592a\u539f","region_id":"48"},{"pinyin":"tongliao","region_name":"\u901a\u8fbd","region_id":"66"},{"pinyin":"tieling","region_name":"\u94c1\u5cad","region_id":"85"},{"is_virtual":"1","pinyin":"tonghua","region_name":"\u901a\u5316","region_id":"92"},{"pinyin":"taizhou","region_name":"\u53f0\u5dde","region_id":"133"},{"is_virtual":"1","pinyin":"tongling","region_name":"\u94dc\u9675","region_id":"141"},{"pinyin":"taian","region_name":"\u6cf0\u5b89","region_id":"180"},{"is_virtual":"1","pinyin":"tongchuan","region_name":"\u94dc\u5ddd","region_id":"326"},{"is_virtual":"1","pinyin":"tianshui","region_name":"\u5929\u6c34","region_id":"339"},{"is_virtual":"1","pinyin":"tulufan","region_name":"\u5410\u9c81\u756a","region_id":"364"},{"pinyin":"taicang","region_name":"\u592a\u4ed3","region_id":"522"},{"pinyin":"taixing","region_name":"\u6cf0\u5174","region_id":"601"},{"pinyin":"tonglu","region_name":"\u6850\u5e90","region_id":"660"},{"pinyin":"tongxiang","region_name":"\u6850\u4e61","region_id":"664"},{"is_virtual":"1","pinyin":"tianmen","region_name":"\u5929\u95e8","region_id":"14667"},{"is_virtual":"1","pinyin":"tongrendiqu","region_name":"\u94dc\u4ec1\u5730\u533a","region_id":"15310"},{"is_virtual":"1","pinyin":"wuhai","region_name":"\u4e4c\u6d77","region_id":"64"},{"is_virtual":"1","pinyin":"wulanchabushi","region_name":"\u4e4c\u5170\u5bdf\u5e03\u5e02","region_id":"70"},{"pinyin":"wuxi","region_name":"\u65e0\u9521","region_id":"112"},{"pinyin":"wenzhou","region_name":"\u6e29\u5dde","region_id":"126"},{"pinyin":"wuhu","region_name":"\u829c\u6e56","region_id":"136"},{"pinyin":"weifang","region_name":"\u6f4d\u574a","region_id":"178"},{"pinyin":"weihai","region_name":"\u5a01\u6d77","region_id":"181"},{"pinyin":"wuhan","region_name":"\u6b66\u6c49","region_id":"206"},{"is_virtual":"1","pinyin":"wuzhou","region_name":"\u68a7\u5dde","region_id":"257"},{"pinyin":"weinan","region_name":"\u6e2d\u5357","region_id":"329"},{"is_virtual":"1","pinyin":"wuwei","region_name":"\u6b66\u5a01","region_id":"340"},{"is_virtual":"1","pinyin":"wuzhong","region_name":"\u5434\u5fe0","region_id":"359"},{"pinyin":"wulumuqi","region_name":"\u4e4c\u9c81\u6728\u9f50","region_id":"362"},{"is_virtual":"1","pinyin":"wuzhishan","region_name":"\u4e94\u6307\u5c71","region_id":"14903"},{"is_virtual":"1","pinyin":"wenchang","region_name":"\u6587\u660c","region_id":"14906"},{"is_virtual":"1","pinyin":"wanning","region_name":"\u4e07\u5b81","region_id":"14907"},{"is_virtual":"1","pinyin":"wenshan","region_name":"\u6587\u5c71","region_id":"310"},{"pinyin":"xingtai","region_name":"\u90a2\u53f0","region_id":"41"},{"is_virtual":"1","pinyin":"xinzhou","region_name":"\u5ffb\u5dde","region_id":"56"},{"is_virtual":"1","pinyin":"xinganmeng","region_name":"\u5174\u5b89\u76df","region_id":"71"},{"is_virtual":"1","pinyin":"xilinguolemeng","region_name":"\u9521\u6797\u90ed\u52d2\u76df","region_id":"72"},{"pinyin":"xuzhou","region_name":"\u5f90\u5dde","region_id":"113"},{"is_virtual":"1","pinyin":"xuancheng","region_name":"\u5ba3\u57ce","region_id":"151"},{"pinyin":"xiamen","region_name":"\u53a6\u95e8","region_id":"153"},{"pinyin":"xinyu","region_name":"\u65b0\u4f59","region_id":"165"},{"pinyin":"xinxiang","region_name":"\u65b0\u4e61","region_id":"195"},{"pinyin":"xuchang","region_name":"\u8bb8\u660c","region_id":"198"},{"pinyin":"xinyang","region_name":"\u4fe1\u9633","region_id":"203"},{"pinyin":"xiangyang","region_name":"\u8944\u9633","region_id":"208"},{"pinyin":"xiaogan","region_name":"\u5b5d\u611f","region_id":"214"},{"is_virtual":"1","pinyin":"xianning","region_name":"\u54b8\u5b81","region_id":"216"},{"pinyin":"xiangtan","region_name":"\u6e58\u6f6d","region_id":"221"},{"is_virtual":"1","pinyin":"xiangxi","region_name":"\u6e58\u897f","region_id":"232"},{"pinyin":"xian","region_name":"\u897f\u5b89","region_id":"325"},{"pinyin":"xianyang","region_name":"\u54b8\u9633","region_id":"328"},{"pinyin":"xining","region_name":"\u897f\u5b81","region_id":"349"},{"pinyin":"xiaoyi","region_name":"\u5b5d\u4e49","region_id":"471"},{"pinyin":"xiantao","region_name":"\u4ed9\u6843","region_id":"526"},{"pinyin":"xinghua","region_name":"\u5174\u5316","region_id":"593"},{"is_virtual":"1","pinyin":"xishuangbanna","region_name":"\u897f\u53cc\u7248\u7eb3","region_id":"312"},{"is_virtual":"1","pinyin":"yangquan","region_name":"\u9633\u6cc9","region_id":"50"},{"pinyin":"yuncheng","region_name":"\u8fd0\u57ce","region_id":"55"},{"pinyin":"yingkou","region_name":"\u8425\u53e3","region_id":"81"},{"is_virtual":"1","pinyin":"yichun2","region_name":"\u4f0a\u6625","region_id":"103"},{"pinyin":"yancheng","region_name":"\u76d0\u57ce","region_id":"119"},{"pinyin":"yangzhou","region_name":"\u626c\u5dde","region_id":"120"},{"is_virtual":"1","pinyin":"yingtan","region_name":"\u9e70\u6f6d","region_id":"166"},{"is_virtual":"1","pinyin":"yichun","region_name":"\u5b9c\u6625","region_id":"169"},{"pinyin":"yantai","region_name":"\u70df\u53f0","region_id":"177"},{"pinyin":"yichang","region_name":"\u5b9c\u660c","region_id":"211"},{"pinyin":"yueyang","region_name":"\u5cb3\u9633","region_id":"224"},{"pinyin":"yiyang","region_name":"\u76ca\u9633","region_id":"227"},{"is_virtual":"1","pinyin":"yongzhou","region_name":"\u6c38\u5dde","region_id":"229"},{"is_virtual":"1","pinyin":"yangjiang","region_name":"\u9633\u6c5f","region_id":"247"},{"is_virtual":"1","pinyin":"yunfu","region_name":"\u4e91\u6d6e","region_id":"253"},{"is_virtual":"1","pinyin":"yulin","region_name":"\u7389\u6797","region_id":"262"},{"pinyin":"yibin","region_name":"\u5b9c\u5bbe","region_id":"283"},{"is_virtual":"1","pinyin":"yaan","region_name":"\u96c5\u5b89","region_id":"287"},{"is_virtual":"1","pinyin":"yuxi","region_name":"\u7389\u6eaa","region_id":"304"},{"is_virtual":"1","pinyin":"yanan","region_name":"\u5ef6\u5b89","region_id":"330"},{"is_virtual":"1","pinyin":"yulin2","region_name":"\u6986\u6797","region_id":"332"},{"pinyin":"yinchuan","region_name":"\u94f6\u5ddd","region_id":"357"},{"pinyin":"yiwu","region_name":"\u4e49\u4e4c","region_id":"420"},{"pinyin":"yixing","region_name":"\u5b9c\u5174","region_id":"523"},{"pinyin":"yuyao","region_name":"\u4f59\u59da","region_id":"653"},{"is_virtual":"1","pinyin":"yiningshi","region_name":"\u4f0a\u5b81\u5e02","region_id":"16168"},{"pinyin":"yanji","region_name":"\u5ef6\u5409","region_id":"16249"},{"pinyin":"zhangjiakou","region_name":"\u5f20\u5bb6\u53e3","region_id":"43"},{"pinyin":"zhenjiang","region_name":"\u9547\u6c5f","region_id":"121"},{"pinyin":"zhoushan","region_name":"\u821f\u5c71","region_id":"132"},{"pinyin":"zhangzhou","region_name":"\u6f33\u5dde","region_id":"157"},{"pinyin":"zibo","region_name":"\u6dc4\u535a","region_id":"174"},{"pinyin":"zaozhuang","region_name":"\u67a3\u5e84","region_id":"175"},{"pinyin":"zhengzhou","region_name":"\u90d1\u5dde","region_id":"189"},{"pinyin":"zhoukou","region_name":"\u5468\u53e3","region_id":"204"},{"pinyin":"zhumadian","region_name":"\u9a7b\u9a6c\u5e97","region_id":"205"},{"pinyin":"zhuzhou","region_name":"\u682a\u6d32","region_id":"220"},{"is_virtual":"1","pinyin":"zhangjiajie","region_name":"\u5f20\u5bb6\u754c","region_id":"226"},{"pinyin":"zhuhai","region_name":"\u73e0\u6d77","region_id":"235"},{"pinyin":"zhanjiang","region_name":"\u6e5b\u6c5f","region_id":"240"},{"is_virtual":"1","pinyin":"zhaoqing","region_name":"\u8087\u5e86","region_id":"242"},{"pinyin":"zhongshan","region_name":"\u4e2d\u5c71","region_id":"250"},{"is_virtual":"1","pinyin":"zigong","region_name":"\u81ea\u8d21","region_id":"273"},{"pinyin":"ziyang","region_name":"\u8d44\u9633","region_id":"289"},{"pinyin":"zunyi","region_name":"\u9075\u4e49","region_id":"295"},{"is_virtual":"1","pinyin":"zhaotong","region_name":"\u662d\u901a","region_id":"306"},{"is_virtual":"1","pinyin":"zhangye","region_name":"\u5f20\u6396","region_id":"341"},{"is_virtual":"1","pinyin":"zhongweishi","region_name":"\u4e2d\u536b\u5e02","region_id":"361"},{"pinyin":"zhucheng","region_name":"\u8bf8\u57ce","region_id":"498"},{"pinyin":"zhangjiagang","region_name":"\u5f20\u5bb6\u6e2f","region_id":"524"},{"pinyin":"zhuji","region_name":"\u8bf8\u66a8","region_id":"670"}]
